CREW DRAGON 12          
1 67796U 26031A   26070.19118651  .00009215  00000+0  17770-3 0  9995
2 67796  51.6325  64.9326 0007932 179.9008 180.1983 15.48575655556450
